CCSDS_OMM_VERS = 2.0
CREATION_DATE  = 
ORIGINATOR     = 

OBJECT_NAME    = STARLINK-36730
OBJECT_ID      = 2026-034AA
CENTER_NAME    = EARTH
REF_FRAME      = TEME
TIME_SYSTEM    = UTC
MEAN_ELEMENT_THEORY = SGP/SGP4

EPOCH          = 2026-03-02T20:00:01.999008
MEAN_MOTION    = 15.80875791
ECCENTRICITY   = .0000968
INCLINATION    = 53.1542
RA_OF_ASC_NODE = 245.5056
ARG_OF_PERICENTER = 86.3933
MEAN_ANOMALY   = 334.3851

EPHEMERIS_TYPE = 0
CLASSIFICATION_TYPE = U
NORAD_CAT_ID   = 67874
ELEMENT_SET_NO = 999
REV_AT_EPOCH   = 276
BSTAR          = -.54205E-4
MEAN_MOTION_DOT = -.11384E-3
MEAN_MOTION_DDOT = 0

CCSDS_OMM_VERS = 2.0
CREATION_DATE  = 
ORIGINATOR     = 

OBJECT_NAME    = STARLINK-36727
OBJECT_ID      = 2026-034AB
CENTER_NAME    = EARTH
REF_FRAME      = TEME
TIME_SYSTEM    = UTC
MEAN_ELEMENT_THEORY = SGP/SGP4

EPOCH          = 2026-03-02T20:00:01.999008
MEAN_MOTION    = 15.80879965
ECCENTRICITY   = .0000594
INCLINATION    = 53.1529
RA_OF_ASC_NODE = 245.4964
ARG_OF_PERICENTER = 87.4352
MEAN_ANOMALY   = 337.6106

EPHEMERIS_TYPE = 0
CLASSIFICATION_TYPE = U
NORAD_CAT_ID   = 67875
ELEMENT_SET_NO = 999
REV_AT_EPOCH   = 276
BSTAR          = -.59836E-4
MEAN_MOTION_DOT = -.12494E-3
MEAN_MOTION_DDOT = 0

CCSDS_OMM_VERS = 2.0
CREATION_DATE  = 
ORIGINATOR     = 

OBJECT_NAME    = STARLINK-36743
OBJECT_ID      = 2026-034AC
CENTER_NAME    = EARTH
REF_FRAME      = TEME
TIME_SYSTEM    = UTC
MEAN_ELEMENT_THEORY = SGP/SGP4

EPOCH          = 2026-03-02T20:00:01.999008
MEAN_MOTION    = 15.80856371
ECCENTRICITY   = .0001123
INCLINATION    = 53.1528
RA_OF_ASC_NODE = 245.4870
ARG_OF_PERICENTER = 90.4038
MEAN_ANOMALY   = 338.9236

EPHEMERIS_TYPE = 0
CLASSIFICATION_TYPE = U
NORAD_CAT_ID   = 67876
ELEMENT_SET_NO = 999
REV_AT_EPOCH   = 276
BSTAR          = .12607E-3
MEAN_MOTION_DOT = .24233E-3
MEAN_MOTION_DDOT = 0

CCSDS_OMM_VERS = 2.0
CREATION_DATE  = 
ORIGINATOR     = 

OBJECT_NAME    = STARLINK-36784
OBJECT_ID      = 2026-034AD
CENTER_NAME    = EARTH
REF_FRAME      = TEME
TIME_SYSTEM    = UTC
MEAN_ELEMENT_THEORY = SGP/SGP4

EPOCH          = 2026-03-02T20:00:01.999008
MEAN_MOTION    = 15.80818660
ECCENTRICITY   = .0001403
INCLINATION    = 53.1528
RA_OF_ASC_NODE = 245.4787
ARG_OF_PERICENTER = 56.8834
MEAN_ANOMALY   = 16.7262

EPHEMERIS_TYPE = 0
CLASSIFICATION_TYPE = U
NORAD_CAT_ID   = 67877
ELEMENT_SET_NO = 999
REV_AT_EPOCH   = 276
BSTAR          = .48593E-3
MEAN_MOTION_DOT = .9604E-3
MEAN_MOTION_DDOT = 0

CCSDS_OMM_VERS = 2.0
CREATION_DATE  = 
ORIGINATOR     = 

OBJECT_NAME    = STARLINK-36689
OBJECT_ID      = 2026-034AE
CENTER_NAME    = EARTH
REF_FRAME      = TEME
TIME_SYSTEM    = UTC
MEAN_ELEMENT_THEORY = SGP/SGP4

EPOCH          = 2026-03-02T20:00:01.999008
MEAN_MOTION    = 15.80834092
ECCENTRICITY   = .0001289
INCLINATION    = 53.1526
RA_OF_ASC_NODE = 245.4699
ARG_OF_PERICENTER = 78.1453
MEAN_ANOMALY   = 359.7392

EPHEMERIS_TYPE = 0
CLASSIFICATION_TYPE = U
NORAD_CAT_ID   = 67878
ELEMENT_SET_NO = 999
REV_AT_EPOCH   = 276
BSTAR          = .29623E-3
MEAN_MOTION_DOT = .58057E-3
MEAN_MOTION_DDOT = 0

CCSDS_OMM_VERS = 2.0
CREATION_DATE  = 
ORIGINATOR     = 

OBJECT_NAME    = STARLINK-36818
OBJECT_ID      = 2026-035A
CENTER_NAME    = EARTH
REF_FRAME      = TEME
TIME_SYSTEM    = UTC
MEAN_ELEMENT_THEORY = SGP/SGP4

EPOCH          = 2026-03-02T20:00:01.999008
MEAN_MOTION    = 16.01554262
ECCENTRICITY   = .0001157
INCLINATION    = 97.2793
RA_OF_ASC_NODE = 353.6169
ARG_OF_PERICENTER = 94.6972
MEAN_ANOMALY   = 346.9148

EPHEMERIS_TYPE = 0
CLASSIFICATION_TYPE = U
NORAD_CAT_ID   = 67879
ELEMENT_SET_NO = 999
REV_AT_EPOCH   = 265
BSTAR          = -.15326E-2
MEAN_MOTION_DOT = -.847045E-2
MEAN_MOTION_DDOT = .2452E-3

CCSDS_OMM_VERS = 2.0
CREATION_DATE  = 
ORIGINATOR     = 

OBJECT_NAME    = STARLINK-36821
OBJECT_ID      = 2026-035B
CENTER_NAME    = EARTH
REF_FRAME      = TEME
TIME_SYSTEM    = UTC
MEAN_ELEMENT_THEORY = SGP/SGP4

EPOCH          = 2026-03-02T20:00:01.999008
MEAN_MOTION    = 16.01742801
ECCENTRICITY   = .0001043
INCLINATION    = 97.2790
RA_OF_ASC_NODE = 353.6195
ARG_OF_PERICENTER = 84.2357
MEAN_ANOMALY   = 2.6864

EPHEMERIS_TYPE = 0
CLASSIFICATION_TYPE = U
NORAD_CAT_ID   = 67880
ELEMENT_SET_NO = 999
REV_AT_EPOCH   = 265
BSTAR          = -.15296E-2
MEAN_MOTION_DOT = -.854619E-2
MEAN_MOTION_DDOT = .24983E-3

CCSDS_OMM_VERS = 2.0
CREATION_DATE  = 
ORIGINATOR     = 

OBJECT_NAME    = STARLINK-36808
OBJECT_ID      = 2026-035C
CENTER_NAME    = EARTH
REF_FRAME      = TEME
TIME_SYSTEM    = UTC
MEAN_ELEMENT_THEORY = SGP/SGP4

EPOCH          = 2026-03-02T20:00:01.999008
MEAN_MOTION    = 16.01627805
ECCENTRICITY   = .0001087
INCLINATION    = 97.2791
RA_OF_ASC_NODE = 353.6180
ARG_OF_PERICENTER = 88.9274
MEAN_ANOMALY   = 354.6646

EPHEMERIS_TYPE = 0
CLASSIFICATION_TYPE = U
NORAD_CAT_ID   = 67881
ELEMENT_SET_NO = 999
REV_AT_EPOCH   = 265
BSTAR          = -.15304E-2
MEAN_MOTION_DOT = -.849423E-2
MEAN_MOTION_DDOT = .24669E-3

CCSDS_OMM_VERS = 2.0
CREATION_DATE  = 
ORIGINATOR     = 

OBJECT_NAME    = STARLINK-36817
OBJECT_ID      = 2026-035D
CENTER_NAME    = EARTH
REF_FRAME      = TEME
TIME_SYSTEM    = UTC
MEAN_ELEMENT_THEORY = SGP/SGP4

EPOCH          = 2026-03-02T20:00:01.999008
MEAN_MOTION    = 16.01968851
ECCENTRICITY   = .0001154
INCLINATION    = 97.2784
RA_OF_ASC_NODE = 353.6221
ARG_OF_PERICENTER = 83.4272
MEAN_ANOMALY   = 9.9926

EPHEMERIS_TYPE = 0
CLASSIFICATION_TYPE = U
NORAD_CAT_ID   = 67882
ELEMENT_SET_NO = 999
REV_AT_EPOCH   = 265
BSTAR          = -.15214E-2
MEAN_MOTION_DOT = -.861187E-2
MEAN_MOTION_DDOT = .25408E-3

CCSDS_OMM_VERS = 2.0
CREATION_DATE  = 
ORIGINATOR     = 

OBJECT_NAME    = STARLINK-36856
OBJECT_ID      = 2026-035E
CENTER_NAME    = EARTH
REF_FRAME      = TEME
TIME_SYSTEM    = UTC
MEAN_ELEMENT_THEORY = SGP/SGP4

EPOCH          = 2026-03-02T20:00:01.999008
MEAN_MOTION    = 16.01862513
ECCENTRICITY   = .0001105
INCLINATION    = 97.2788
RA_OF_ASC_NODE = 353.6208
ARG_OF_PERICENTER = 90.4084
MEAN_ANOMALY   = 359.9947

EPHEMERIS_TYPE = 0
CLASSIFICATION_TYPE = U
NORAD_CAT_ID   = 67883
ELEMENT_SET_NO = 999
REV_AT_EPOCH   = 265
BSTAR          = -.15242E-2
MEAN_MOTION_DOT = -.857501E-2
MEAN_MOTION_DDOT = .25175E-3

CCSDS_OMM_VERS = 2.0
CREATION_DATE  = 
ORIGINATOR     = 

OBJECT_NAME    = STARLINK-36842
OBJECT_ID      = 2026-035F
CENTER_NAME    = EARTH
REF_FRAME      = TEME
TIME_SYSTEM    = UTC
MEAN_ELEMENT_THEORY = SGP/SGP4

EPOCH          = 2026-03-02T20:00:01.999008
MEAN_MOTION    = 16.02060063
ECCENTRICITY   = .0001038
INCLINATION    = 97.2785
RA_OF_ASC_NODE = 353.6233
ARG_OF_PERICENTER = 76.0688
MEAN_ANOMALY   = 20.1496

EPHEMERIS_TYPE = 0
CLASSIFICATION_TYPE = U
NORAD_CAT_ID   = 67884
ELEMENT_SET_NO = 999
REV_AT_EPOCH   = 265
BSTAR          = -.14814E-2
MEAN_MOTION_DOT = -.843126E-2
MEAN_MOTION_DDOT = .24453E-3

CCSDS_OMM_VERS = 2.0
CREATION_DATE  = 
ORIGINATOR     = 

OBJECT_NAME    = STARLINK-36826
OBJECT_ID      = 2026-035G
CENTER_NAME    = EARTH
REF_FRAME      = TEME
TIME_SYSTEM    = UTC
MEAN_ELEMENT_THEORY = SGP/SGP4

EPOCH          = 2026-03-02T20:00:01.999008
MEAN_MOTION    = 16.02145361
ECCENTRICITY   = .000108
INCLINATION    = 97.2783
RA_OF_ASC_NODE = 353.6242
ARG_OF_PERICENTER = 77.9352
MEAN_ANOMALY   = 20.4745

EPHEMERIS_TYPE = 0
CLASSIFICATION_TYPE = U
NORAD_CAT_ID   = 67885
ELEMENT_SET_NO = 999
REV_AT_EPOCH   = 265
BSTAR          = -.14826E-2
MEAN_MOTION_DOT = -.847957E-2
MEAN_MOTION_DDOT = .24739E-3

